{
  "banks": [
    {
      "id": 1,
      "name": "株式会社みずほ銀行",
      "businesss_code": "6010001008845",
      "postal_code": "100-8176",
      "address": "東京都千代田区大手町１－５－５"
    },
    {
      "id": 2,
      "name": "株式会社三井住友銀行",
      "businesss_code": "5010001008813",
      "postal_code": "100-0005",
      "address": "東京都千代田区丸の内１－１－２"
    },
    {
      "id": 3,
      "name": "株式会社三菱ＵＦＪ銀行",
      "businesss_code": "5010001008846",
      "postal_code": "100-8388",
      "address": "東京都千代田区丸の内２－７－１"
    },
    {
      "id": 4,
      "name": "株式会社りそな銀行",
      "businesss_code": "6120001076393",
      "postal_code": "540-8610",
      "address": "大阪市中央区備後町２－２－１"
    },
    {
      "id": 5,
      "name": "オリックス銀行株式会社",
      "businesss_code": "1010401084739",
      "postal_code": "105-0014",
      "address": "東京都港区芝３－２２－８"
    },
    {
      "id": 6,
      "name": "株式会社日本カストディ銀行",
      "businesss_code": "5010001069616",
      "postal_code": "104-6228",
      "address": "東京都中央区晴海１－８－１２"
    },
    {
      "id": 7,
      "name": "新生信託銀行株式会社",
      "businesss_code": "3010001077463",
      "postal_code": "103-0022",
      "address": "東京都中央区日本橋室町２－４－３"
    },
    {
      "id": 8,
      "name": "ステート・ストリート信託銀行株式会社",
      "businesss_code": "9010401014952",
      "postal_code": "105-6325",
      "address": "東京都港区虎ノ門１－２３－１"
    },
    {
      "id": 9,
      "name": "三井住友信託銀行株式会社",
      "businesss_code": "2010001146005",
      "postal_code": "100-8233",
      "address": "東京都千代田区丸の内１－４－１"
    },
    {
      "id": 10,
      "name": "株式会社ＳＭＢＣ信託銀行",
      "businesss_code": "1010401017640",
      "postal_code": "105-0003",
      "address": "東京都港区西新橋１－３－１"
    },
    {
      "id": 11,
      "name": "日証金信託銀行株式会社",
      "businesss_code": "2010001053201",
      "postal_code": "103-0025",
      "address": "東京都中央区日本橋茅場町１－２－４"
    },
    {
      "id": 12,
      "name": "日本マスタートラスト信託銀行株式会社",
      "businesss_code": "2010401041086",
      "postal_code": "105-8579",
      "address": "東京都港区浜松町２－１１－３"
    },
    {
      "id": 13,
      "name": "ニューヨークメロン信託銀行株式会社",
      "businesss_code": "8010001098348",
      "postal_code": "100-8580",
      "address": "東京都千代田区丸の内１－８－３"
    },
    {
      "id": 14,
      "name": "農中信託銀行株式会社",
      "businesss_code": "7010001008729",
      "postal_code": "101-0054",
      "address": "東京都千代田区神田錦町２－２－１"
    },
    {
      "id": 15,
      "name": "野村信託銀行株式会社",
      "businesss_code": "2010001054018",
      "postal_code": "100-0004",
      "address": "東京都千代田区大手町２－２－２"
    },
    {
      "id": 16,
      "name": "みずほ信託銀行株式会社",
      "businesss_code": "9010001034962",
      "postal_code": "103-8670",
      "address": "東京都中央区八重洲１－２－１"
    },
    {
      "id": 17,
      "name": "三菱ＵＦＪ信託銀行株式会社",
      "businesss_code": "6010001008770",
      "postal_code": "100-8212",
      "address": "東京都千代田区丸の内１－４－５"
    },
    {
      "id": 18,
      "name": "株式会社あおぞら銀行",
      "businesss_code": "9010001016861",
      "postal_code": "102-8660",
      "address": "東京都千代田区麹町６－１－１"
    },
    {
      "id": 19,
      "name": "株式会社イオン銀行",
      "businesss_code": "1010601032497",
      "postal_code": "101-0054",
      "address": "東京都千代田区神田錦町３－２２"
    },
    {
      "id": 20,
      "name": "株式会社ＳＢＪ銀行",
      "businesss_code": "1010401079879",
      "postal_code": "108-0014",
      "address": "東京都港区芝５－３６－７ 三田ベルジュビル"
    },
    {
      "id": 21,
      "name": "ＧＭＯあおぞらネット銀行株式会社",
      "businesss_code": "9010001025425",
      "postal_code": "150-0043",
      "address": "東京都渋谷区道玄坂１－２－３"
    },
    {
      "id": 22,
      "name": "ａｕじぶん銀行株式会社",
      "businesss_code": "4011101057379",
      "postal_code": "103-0027",
      "address": "東京都中央区日本橋１－１９－１"
    },
    {
      "id": 23,
      "name": "株式会社ジャパンネット銀行",
      "businesss_code": "4011101030492",
      "postal_code": "163-0440",
      "address": "東京都新宿区西新宿２－１－１"
    },
    {
      "id": 24,
      "name": "株式会社新生銀行",
      "businesss_code": "7010001016855",
      "postal_code": "103-8303",
      "address": "東京都中央区日本橋室町２－４－３"
    },
    {
      "id": 25,
      "name": "住信SBIネット銀行株式会社",
      "businesss_code": "6010401061386",
      "postal_code": "106-6018",
      "address": "東京都港区六本木１－６－１"
    },
    {
      "id": 26,
      "name": "株式会社整理回収機構",
      "businesss_code": "8011201002545",
      "postal_code": "100-0005",
      "address": "東京都千代田区丸の内３－４－２ 新日石ビル"
    },
    {
      "id": 27,
      "name": "株式会社セブン銀行",
      "businesss_code": "5010001073618",
      "postal_code": "100-0005",
      "address": "東京都千代田区丸の内１－６－１"
    },
    {
      "id": 28,
      "name": "ソニー銀行株式会社",
      "businesss_code": "1010001126313",
      "postal_code": "100-0011",
      "address": "東京都千代田区内幸町２－１－６"
    },
    {
      "id": 29,
      "name": "株式会社大和ネクスト銀行",
      "businesss_code": "4010001131772",
      "postal_code": "100-6756",
      "address": "東京都千代田区丸の内１－９－１"
    },
    {
      "id": 30,
      "name": "楽天銀行株式会社",
      "businesss_code": "5010701022527",
      "postal_code": "108-0075",
      "address": "東京都港区港南二丁目１６番５号"
    },
    {
      "id": 31,
      "name": "株式会社ローソン銀行",
      "businesss_code": "7010701033357",
      "postal_code": "141-6005",
      "address": "東京都品川区大崎２－１－１"
    },
    {
      "id": 32,
      "name": "株式会社ゆうちょ銀行",
      "businesss_code": "5010001112730",
      "postal_code": "100-8793",
      "address": "東京都千代田区大手町二丁目３番１号"
    }
  ],
  "nested_array": {
    "items": [
      {
        "id": 1,
        "name": "株式会社みずほ銀行",
        "businesss_code": "6010001008845",
        "postal_code": "100-8176",
        "address": "東京都千代田区大手町１－５－５"
      },
      {
        "id": 2,
        "name": "株式会社三井住友銀行",
        "businesss_code": "5010001008813",
        "postal_code": "100-0005",
        "address": "東京都千代田区丸の内１－１－２"
      },
      {
        "id": 3,
        "name": "株式会社三菱ＵＦＪ銀行",
        "businesss_code": "5010001008846",
        "postal_code": "100-8388",
        "address": "東京都千代田区丸の内２－７－１"
      }
    ]
  }
}

